[{"id":529,"name":"北京","initial":"B","pin_code":"BJ","longitude":"116.395645037879","latitude":"39.9299857780802","Citys":[{"id":1,"name":"北京","initial":"B","pin_code":"BJ","longitude":"116.395645037879","latitude":"39.9299857780802"}]},{"id":530,"name":"上海","initial":"S","pin_code":"SH","longitude":"121.487899485695","latitude":"31.2491617100151","Citys":[{"id":2,"name":"上海","initial":"S","pin_code":"SH","longitude":"121.487899485695","latitude":"31.2491617100151"}]},{"id":531,"name":"天津","initial":"T","pin_code":"TJ","longitude":"117.210813091553","latitude":"39.1439299033101","Citys":[{"id":3,"name":"天津","initial":"T","pin_code":"TJ","longitude":"117.210813091553","latitude":"39.1439299033101"}]},{"id":532,"name":"重庆","initial":"Z","pin_code":"ZQ","longitude":"106.530635013413","latitude":"29.5446061088862","Citys":[{"id":4,"name":"重庆","initial":"Z","pin_code":"ZQ","longitude":"106.530635013413","latitude":"29.5446061088862"}]},{"id":5,"name":"广东","initial":"G","pin_code":"GD","longitude":"113.394817558759","latitude":"23.4080037290247","Citys":[{"id":127,"name":"广州","initial":"G","pin_code":"GZ","longitude":"113.307649675152","latitude":"23.1200491020762"},{"id":128,"name":"深圳","initial":"S","pin_code":"SZ","longitude":"114.025973657322","latitude":"22.5460535462052"},{"id":129,"name":"东莞","initial":"D","pin_code":"DW","longitude":"113.763433990757","latitude":"23.0430238153682"},{"id":130,"name":"中山","initial":"Z","pin_code":"ZS","longitude":"121.677966289226","latitude":"38.900436431992"},{"id":131,"name":"潮州","initial":"C","pin_code":"CZ","longitude":"116.630075990864","latitude":"23.6618116765165"},{"id":132,"name":"揭阳","initial":"J","pin_code":"JY","longitude":"116.379500855382","latitude":"23.5479994669261"},{"id":133,"name":"云浮","initial":"Y","pin_code":"YF","longitude":"112.050945958645","latitude":"22.9379756855375"},{"id":134,"name":"珠海","initial":"Z","pin_code":"ZH","longitude":"113.56244702619","latitude":"22.2569146461257"},{"id":135,"name":"汕头","initial":"S","pin_code":"ST","longitude":"116.728650288341","latitude":"23.3839084532692"},{"id":136,"name":"韶关","initial":"S","pin_code":"SG","longitude":"113.594461107436","latitude":"24.8029603118919"},{"id":137,"name":"佛山","initial":"F","pin_code":"FS","longitude":"113.134025635393","latitude":"23.0350948405144"},{"id":138,"name":"江门","initial":"J","pin_code":"JM","longitude":"113.078125341154","latitude":"22.575116783451"},{"id":139,"name":"湛江","initial":"Z","pin_code":"ZJ","longitude":"110.36506726285","latitude":"21.2574631037643"},{"id":140,"name":"茂名","initial":"M","pin_code":"MM","longitude":"110.931245330676","latitude":"21.6682257188216"},{"id":141,"name":"肇庆","initial":"Z","pin_code":"ZQ","longitude":"112.479653369916","latitude":"23.0786632829289"},{"id":142,"name":"惠州","initial":"H","pin_code":"HZ","longitude":"114.410658079971","latitude":"23.1135398524084"},{"id":143,"name":"梅州","initial":"M","pin_code":"MZ","longitude":"116.126403098369","latitude":"24.3045706060305"},{"id":144,"name":"汕尾","initial":"S","pin_code":"SW","longitude":"115.3729242894","latitude":"22.7787305001639"},{"id":145,"name":"河源","initial":"H","pin_code":"HY","longitude":"114.713721475875","latitude":"23.757250850469"},{"id":146,"name":"阳江","initial":"Y","pin_code":"YJ","longitude":"111.977009755874","latitude":"21.8715173045188"},{"id":147,"name":"清远","initial":"Q","pin_code":"QY","longitude":"113.040773348908","latitude":"23.6984685504222"}]},{"id":6,"name":"四川","initial":"S","pin_code":"SC","longitude":"102.899159723604","latitude":"30.3674809379575","Citys":[{"id":148,"name":"成都","initial":"C","pin_code":"CD","longitude":"104.067923463304","latitude":"30.6799428454196"},{"id":149,"name":"自贡","initial":"Z","pin_code":"ZG","longitude":"104.776071339364","latitude":"29.3591568894757"},{"id":150,"name":"攀枝花","initial":"P","pin_code":"PZH","longitude":"101.72242315249","latitude":"26.5875712571087"},{"id":151,"name":"泸州","initial":"L","pin_code":"LZ","longitude":"105.443970289206","latitude":"28.8959298038601"},{"id":152,"name":"德阳","initial":"D","pin_code":"DY","longitude":"104.402397818245","latitude":"31.1311396527014"},{"id":153,"name":"绵阳","initial":"M","pin_code":"MY","longitude":"104.705518975293","latitude":"31.5047012580614"},{"id":154,"name":"广元","initial":"G","pin_code":"GY","longitude":"105.819686939997","latitude":"32.4410401584282"},{"id":155,"name":"遂宁","initial":"S","pin_code":"SN","longitude":"105.564887792263","latitude":"30.55749135038"},{"id":156,"name":"内江","initial":"N","pin_code":"NJ","longitude":"105.073055991715","latitude":"29.5994615347746"},{"id":157,"name":"乐山","initial":"L","pin_code":"LS","longitude":"103.760824238772","latitude":"29.6009576110951"},{"id":158,"name":"南充","initial":"N","pin_code":"NC","longitude":"106.105553983792","latitude":"30.8009651682372"},{"id":159,"name":"眉山","initial":"M","pin_code":"MS","longitude":"103.841429562868","latitude":"30.0611150799445"},{"id":160,"name":"宜宾","initial":"Y","pin_code":"YB","longitude":"104.633019061525","latitude":"28.7696747962659"},{"id":161,"name":"广安","initial":"G","pin_code":"GA","longitude":"106.758911963621","latitude":"30.5992499871995"},{"id":162,"name":"达州","initial":"D","pin_code":"DZ","longitude":"107.494973446589","latitude":"31.2141988589447"},{"id":163,"name":"雅安","initial":"Y","pin_code":"YA","longitude":"103.009356466347","latitude":"29.9997163370658"},{"id":164,"name":"巴中","initial":"B","pin_code":"BZ","longitude":"106.757915841754","latitude":"31.86918915916"},{"id":165,"name":"资阳","initial":"Z","pin_code":"ZY","longitude":"112.343121352789","latitude":"28.6940694288975"},{"id":166,"name":"阿坝","initial":"A","pin_code":"AB","longitude":"102.228564689214","latitude":"31.9057628583389"},{"id":167,"name":"甘孜","initial":"G","pin_code":"GZ","longitude":"101.969232063064","latitude":"30.0551441143555"},{"id":168,"name":"凉山","initial":"L","pin_code":"LS","longitude":"102.259590803203","latitude":"27.8923929036657"}]},{"id":7,"name":"山东","initial":"S","pin_code":"SD","longitude":"118.527663392878","latitude":"36.0992899297283","Citys":[{"id":169,"name":"济南","initial":"J","pin_code":"JN","longitude":"117.02496706629","latitude":"36.6827847271614"},{"id":170,"name":"青岛","initial":"Q","pin_code":"QD","longitude":"120.384428183682","latitude":"36.1052149012738"},{"id":171,"name":"淄博","initial":"Z","pin_code":"ZB","longitude":"118.059134277869","latitude":"36.804684854212"},{"id":172,"name":"枣庄","initial":"Z","pin_code":"ZZ","longitude":"117.279305383297","latitude":"34.807883078386"},{"id":173,"name":"东营","initial":"D","pin_code":"DY","longitude":"118.612643051879","latitude":"37.4086662880412"},{"id":174,"name":"烟台","initial":"Y","pin_code":"YT","longitude":"121.309555030085","latitude":"37.5365615628596"},{"id":175,"name":"潍坊","initial":"W","pin_code":"WF","longitude":"119.142633822971","latitude":"36.7161148730514"},{"id":176,"name":"济宁","initial":"J","pin_code":"JN","longitude":"116.600797624823","latitude":"35.4021216643313"},{"id":177,"name":"泰安","initial":"T","pin_code":"TA","longitude":"117.089414917137","latitude":"36.1880777589481"},{"id":178,"name":"威海","initial":"W","pin_code":"WH","longitude":"122.093958365806","latitude":"37.5287870812514"},{"id":179,"name":"日照","initial":"R","pin_code":"RZ","longitude":"119.507179942994","latitude":"35.4202251931444"},{"id":180,"name":"莱芜","initial":"L","pin_code":"LW","longitude":"117.684666912472","latitude":"36.2336541336469"},{"id":181,"name":"临沂","initial":"L","pin_code":"LY","longitude":"118.340768236611","latitude":"35.0724090743911"},{"id":182,"name":"德州","initial":"D","pin_code":"DZ","longitude":"116.328161363561","latitude":"37.460825926305"},{"id":183,"name":"聊城","initial":"L","pin_code":"LC","longitude":"115.986869139291","latitude":"36.455828514728"},{"id":184,"name":"滨州","initial":"B","pin_code":"BZ","longitude":"117.968292414528","latitude":"37.4053139418259"},{"id":185,"name":"菏泽","initial":"H","pin_code":"HZ","longitude":"115.463359774528","latitude":"35.2624404960747"}]},{"id":8,"name":"江苏","initial":"J","pin_code":"JS","longitude":"119.368488938358","latitude":"33.0137971699539","Citys":[{"id":186,"name":"南京","initial":"N","pin_code":"NJ","longitude":"118.778074408026","latitude":"32.0572355018059"},{"id":187,"name":"苏州","initial":"S","pin_code":"SZ","longitude":"120.61990711549","latitude":"31.3179873679524"},{"id":188,"name":"无锡","initial":"W","pin_code":"WX","longitude":"120.305455900536","latitude":"31.570037451923"},{"id":189,"name":"常州","initial":"C","pin_code":"CZ","longitude":"119.981861013457","latitude":"31.7713967446842"},{"id":190,"name":"镇江","initial":"Z","pin_code":"ZJ","longitude":"119.45583540513","latitude":"32.2044094435993"},{"id":191,"name":"南通","initial":"N","pin_code":"NT","longitude":"120.87380095093","latitude":"32.0146645408234"},{"id":192,"name":"泰州","initial":"T","pin_code":"TZ","longitude":"119.919606016191","latitude":"32.4760532748303"},{"id":193,"name":"扬州","initial":"Y","pin_code":"YZ","longitude":"119.42777755117","latitude":"32.4085052545684"},{"id":194,"name":"盐城","initial":"Y","pin_code":"YC","longitude":"120.148871817939","latitude":"33.379861877121"},{"id":195,"name":"连云港","initial":"L","pin_code":"LYG","longitude":"119.173872217419","latitude":"34.60154896701"},{"id":196,"name":"徐州","initial":"X","pin_code":"XZ","longitude":"117.188106623177","latitude":"34.2715534310919"},{"id":197,"name":"淮安","initial":"H","pin_code":"HA","longitude":"119.030186364656","latitude":"33.6065127392763"},{"id":198,"name":"宿迁","initial":"S","pin_code":"SQ","longitude":"118.296893378553","latitude":"33.9520497337086"}]},{"id":536,"name":"河北","initial":"H","pin_code":"HB","longitude":"115","latitude":"39","Citys":[{"id":199,"name":"石家庄","initial":"S","pin_code":"SJZ","longitude":"114.522081844208","latitude":"38.0489583146155"},{"id":200,"name":"唐山","initial":"T","pin_code":"TS","longitude":"118.183450597734","latitude":"39.6505309225366"},{"id":201,"name":"秦皇岛","initial":"Q","pin_code":"QHD","longitude":"119.604367616118","latitude":"39.9454615658976"},{"id":202,"name":"邯郸","initial":"H","pin_code":"HD","longitude":"114.482693932342","latitude":"36.6093079284712"},{"id":203,"name":"邢台","initial":"X","pin_code":"XT","longitude":"114.520486812944","latitude":"37.069531196912"},{"id":204,"name":"保定","initial":"B","pin_code":"BD","longitude":"115.494810169076","latitude":"38.8865645480274"},{"id":205,"name":"张家口","initial":"Z","pin_code":"ZJK","longitude":"114.893781530329","latitude":"40.8111884911031"},{"id":206,"name":"承德","initial":"C","pin_code":"CD","longitude":"117.933822455838","latitude":"40.9925210524571"},{"id":207,"name":"沧州","initial":"C","pin_code":"CZ","longitude":"116.863806476442","latitude":"38.2976153503257"},{"id":208,"name":"廊坊","initial":"L","pin_code":"LF","longitude":"116.70360222264","latitude":"39.5186106250846"},{"id":209,"name":"衡水","initial":"H","pin_code":"HS","longitude":"115.686228652909","latitude":"37.7469290458567"}]},{"id":10,"name":"浙江","initial":"Z","pin_code":"ZJ","longitude":"119.957202420664","latitude":"29.1594941207609","Citys":[{"id":210,"name":"杭州","initial":"H","pin_code":"HZ","longitude":"120.21937541572","latitude":"30.2592444615361"},{"id":211,"name":"宁波","initial":"N","pin_code":"NB","longitude":"121.579005972589","latitude":"29.8852589659181"},{"id":212,"name":"温州","initial":"W","pin_code":"WZ","longitude":"120.690634733709","latitude":"28.0028375940412"},{"id":213,"name":"嘉兴","initial":"J","pin_code":"JX","longitude":"120.760427698957","latitude":"30.7739922395818"},{"id":214,"name":"湖州","initial":"H","pin_code":"HZ","longitude":"120.137243163282","latitude":"30.8779251556909"},{"id":215,"name":"绍兴","initial":"S","pin_code":"SX","longitude":"120.592467385552","latitude":"30.0023645805285"},{"id":216,"name":"金华","initial":"J","pin_code":"JH","longitude":"119.652575703681","latitude":"29.1028991053907"},{"id":217,"name":"衢州","initial":"Q","pin_code":"QZ","longitude":"118.875841651509","latitude":"28.9569104475357"},{"id":218,"name":"舟山","initial":"Z","pin_code":"ZS","longitude":"122.169872098352","latitude":"30.0360103025539"},{"id":219,"name":"台州","initial":"T","pin_code":"TZ","longitude":"121.440612935937","latitude":"28.6682832856744"},{"id":220,"name":"丽水","initial":"L","pin_code":"LS","longitude":"119.929575843188","latitude":"28.4562995521443"}]},{"id":11,"name":"陕西","initial":"S","pin_code":"SX","longitude":"109.503789290725","latitude":"35.8600262613228","Citys":[{"id":221,"name":"西安","initial":"X","pin_code":"XA","longitude":"125.150148578621","latitude":"42.9863649463778"},{"id":222,"name":"铜川","initial":"T","pin_code":"TC","longitude":"108.968067013401","latitude":"34.9083676963836"},{"id":223,"name":"宝鸡","initial":"B","pin_code":"BJ","longitude":"107.170645452383","latitude":"34.3640808097478"},{"id":224,"name":"咸阳","initial":"X","pin_code":"XY","longitude":"108.707509278196","latitude":"34.3453729959986"},{"id":225,"name":"渭南","initial":"W","pin_code":"WN","longitude":"109.48393269658","latitude":"34.5023579758288"},{"id":226,"name":"延安","initial":"Y","pin_code":"YA","longitude":"109.500509756969","latitude":"36.6033203522603"},{"id":227,"name":"汉中","initial":"H","pin_code":"HZ","longitude":"107.045477628725","latitude":"33.0815689781577"},{"id":228,"name":"榆林","initial":"Y","pin_code":"YL","longitude":"109.745925744329","latitude":"38.2794392400706"},{"id":229,"name":"安康","initial":"A","pin_code":"AK","longitude":"109.038044563475","latitude":"32.7043704499944"},{"id":230,"name":"商洛","initial":"S","pin_code":"SL","longitude":"109.934208153795","latitude":"33.8739073950852"}]},{"id":12,"name":"湖南","initial":"H","pin_code":"HN","longitude":"111.720663546476","latitude":"27.6958640523564","Citys":[{"id":231,"name":"长沙","initial":"C","pin_code":"CS","longitude":"112.979352787651","latitude":"28.2134782308532"},{"id":232,"name":"株洲","initial":"Z","pin_code":"ZZ","longitude":"113.131695341071","latitude":"27.8274329276626"},{"id":233,"name":"湘潭","initial":"X","pin_code":"XT","longitude":"112.935555633034","latitude":"27.8350950529788"},{"id":234,"name":"衡阳","initial":"H","pin_code":"HY","longitude":"112.583818810716","latitude":"26.8981644153581"},{"id":235,"name":"邵阳","initial":"S","pin_code":"SY","longitude":"111.461525403554","latitude":"27.2368112449224"},{"id":236,"name":"岳阳","initial":"Y","pin_code":"YY","longitude":"113.146195519116","latitude":"29.3780070754743"},{"id":237,"name":"常德","initial":"C","pin_code":"CD","longitude":"111.653718136842","latitude":"29.0121488551808"},{"id":238,"name":"张家界","initial":"Z","pin_code":"ZJJ","longitude":"110.481620156968","latitude":"29.1248893532198"},{"id":239,"name":"益阳","initial":"Y","pin_code":"YY","longitude":"112.366546645226","latitude":"28.5880877798872"},{"id":240,"name":"郴州","initial":"C","pin_code":"CZ","longitude":"113.037704467796","latitude":"25.7822639757389"},{"id":241,"name":"永州","initial":"Y","pin_code":"YZ","longitude":"111.614647686157","latitude":"26.4359716467592"},{"id":242,"name":"怀化","initial":"H","pin_code":"HH","longitude":"109.986958795854","latitude":"27.5574829011728"},{"id":243,"name":"娄底","initial":"L","pin_code":"LD","longitude":"111.99639635657","latitude":"27.7410733023491"},{"id":244,"name":"湘西","initial":"X","pin_code":"XX","longitude":"109.745745800394","latitude":"28.3179507936736"}]},{"id":13,"name":"湖北","initial":"H","pin_code":"HB","longitude":"112.410562192132","latitude":"31.2093162501397","Citys":[{"id":245,"name":"武汉","initial":"W","pin_code":"WH","longitude":"114.316200102681","latitude":"30.5810841269208"},{"id":246,"name":"黄石","initial":"H","pin_code":"HS","longitude":"115.050683163924","latitude":"30.2161271277141"},{"id":247,"name":"十堰","initial":"S","pin_code":"SY","longitude":"110.80122891676","latitude":"32.6369943394681"},{"id":248,"name":"荆州","initial":"J","pin_code":"JZ","longitude":"112.099857180646","latitude":"30.3961033608529"},{"id":249,"name":"宜昌","initial":"Y","pin_code":"YC","longitude":"111.310981091961","latitude":"30.7327578180259"},{"id":250,"name":"襄阳","initial":"X","pin_code":"XY","longitude":"112.176325796506","latitude":"32.0949336458209"},{"id":251,"name":"鄂州","initial":"E","pin_code":"EZ","longitude":"114.895594041357","latitude":"30.3844393227522"},{"id":252,"name":"荆门","initial":"J","pin_code":"JM","longitude":"112.217330298967","latitude":"31.0426112029486"},{"id":253,"name":"孝感","initial":"X","pin_code":"XG","longitude":"113.935734392071","latitude":"30.927954784201"},{"id":254,"name":"黄冈","initial":"H","pin_code":"HG","longitude":"114.906618046575","latitude":"30.4461089379011"},{"id":255,"name":"咸宁","initial":"X","pin_code":"XN","longitude":"114.300060592061","latitude":"29.8806567577282"},{"id":256,"name":"随州","initial":"S","pin_code":"SZ","longitude":"113.379358364292","latitude":"31.7178576081886"},{"id":257,"name":"恩施","initial":"E","pin_code":"ES","longitude":"109.517432662322","latitude":"30.3089785112964"},{"id":258,"name":"仙桃","initial":"X","pin_code":"XT","longitude":"113.387448193578","latitude":"30.2939660049223"},{"id":259,"name":"天门","initial":"T","pin_code":"TM","longitude":"113.126230487648","latitude":"30.6490473564224"},{"id":260,"name":"潜江","initial":"Q","pin_code":"QJ","longitude":"112.768768016858","latitude":"30.3431157926013"},{"id":261,"name":"神农架","initial":"S","pin_code":"SNJ","longitude":"110.697791822034","latitude":"31.7492204213651"}]},{"id":14,"name":"广西","initial":"G","pin_code":"GX","longitude":"108.924274427059","latitude":"23.5522546881194","Citys":[{"id":262,"name":"南宁","initial":"N","pin_code":"NN","longitude":"108.297233555866","latitude":"22.8064929356026"},{"id":263,"name":"柳州","initial":"L","pin_code":"LZ","longitude":"109.422401810151","latitude":"24.3290533524672"},{"id":264,"name":"桂林","initial":"G","pin_code":"GL","longitude":"110.260920147483","latitude":"25.2629012459552"},{"id":265,"name":"梧州","initial":"W","pin_code":"WZ","longitude":"111.305471950073","latitude":"23.4853946367345"},{"id":266,"name":"北海","initial":"B","pin_code":"BH","longitude":"109.122627919193","latitude":"21.4727182350097"},{"id":267,"name":"防城港","initial":"F","pin_code":"FCG","longitude":"108.351791152861","latitude":"21.6173984704718"},{"id":268,"name":"钦州","initial":"Q","pin_code":"QZ","longitude":"108.638798056424","latitude":"21.9733504653127"},{"id":269,"name":"贵港","initial":"G","pin_code":"GG","longitude":"109.613707556579","latitude":"23.1033731644088"},{"id":270,"name":"玉林","initial":"Y","pin_code":"YL","longitude":"110.151676316145","latitude":"22.6439736083773"},{"id":271,"name":"百色","initial":"B","pin_code":"BS","longitude":"106.631821403651","latitude":"23.9015123679101"},{"id":272,"name":"贺州","initial":"H","pin_code":"HZ","longitude":"111.552594178837","latitude":"24.4110535471128"},{"id":273,"name":"河池","initial":"H","pin_code":"HC","longitude":"108.069947709368","latitude":"24.6995207828732"},{"id":274,"name":"来宾","initial":"L","pin_code":"LB","longitude":"109.231816504742","latitude":"23.7411659265148"},{"id":275,"name":"崇左","initial":"C","pin_code":"CZ","longitude":"107.357322038368","latitude":"22.4154552965464"}]},{"id":15,"name":"贵州","initial":"G","pin_code":"GZ","longitude":"106.734996103305","latitude":"26.9028259277968","Citys":[{"id":276,"name":"贵阳","initial":"G","pin_code":"GY","longitude":"106.709177096176","latitude":"26.6299067414409"},{"id":277,"name":"六盘水","initial":"L","pin_code":"LPS","longitude":"104.852086760069","latitude":"26.5918660603187"},{"id":278,"name":"遵义","initial":"Z","pin_code":"ZY","longitude":"106.931260316485","latitude":"27.6999613770762"},{"id":279,"name":"安顺","initial":"A","pin_code":"AS","longitude":"105.928269965758","latitude":"26.2285945777375"},{"id":280,"name":"铜仁","initial":"T","pin_code":"TR","longitude":"109.16855802826","latitude":"27.6749026906242"},{"id":281,"name":"毕节","initial":"B","pin_code":"BJ","longitude":"105.333323371168","latitude":"27.4085621313309"},{"id":282,"name":"黔西南","initial":"Q","pin_code":"QXN","longitude":"104.900557798252","latitude":"25.0951480559269"},{"id":283,"name":"黔东南","initial":"Q","pin_code":"QDN","longitude":"107.985352572741","latitude":"26.5839917665416"},{"id":284,"name":"黔南","initial":"Q","pin_code":"QN","longitude":"107.523205110058","latitude":"26.2645359974422"}]},{"id":16,"name":"海南","initial":"H","pin_code":"HN","longitude":"106.925397178662","latitude":"39.2962094793918","Citys":[{"id":285,"name":"海口","initial":"H","pin_code":"HK","longitude":"110.330801848336","latitude":"20.0220712769522"},{"id":286,"name":"三亚","initial":"S","pin_code":"SY","longitude":"109.522771281359","latitude":"18.2577759148975"},{"id":287,"name":"五指山","initial":"W","pin_code":"WZS","longitude":"109.517750063692","latitude":"18.8313057490135"},{"id":288,"name":"琼海","initial":"Q","pin_code":"QH","longitude":"110.414359351513","latitude":"19.2148303686168"},{"id":289,"name":"儋州","initial":"D","pin_code":"DZ","longitude":"109.413973132585","latitude":"19.5711530916172"},{"id":290,"name":"文昌","initial":"W","pin_code":"WC","longitude":"110.780909444989","latitude":"19.750947380145"},{"id":291,"name":"万宁","initial":"W","pin_code":"WN","longitude":"110.292504857239","latitude":"18.8398859091767"},{"id":292,"name":"东方","initial":"D","pin_code":"DF","longitude":"108.85100963157","latitude":"18.9981608612177"},{"id":293,"name":"澄迈","initial":"C","pin_code":"CM","longitude":"109.996736201571","latitude":"19.6931350695773"},{"id":294,"name":"定安","initial":"D","pin_code":"DA","longitude":"110.320090069384","latitude":"19.4909913978596"},{"id":527,"name":"三沙","initial":"S","pin_code":"SS","longitude":"112.340717","latitude":"16.836601"},{"id":295,"name":"屯昌","initial":"T","pin_code":"TC","longitude":"110.063364044744","latitude":"19.3477491278517"},{"id":296,"name":"临高","initial":"L","pin_code":"LG","longitude":"109.724101528681","latitude":"19.8059220124086"},{"id":297,"name":"白沙","initial":"B","pin_code":"BS","longitude":"109.358585582911","latitude":"19.2160561420617"},{"id":298,"name":"昌江","initial":"C","pin_code":"CJ","longitude":"117.186199864103","latitude":"29.2721548371883"},{"id":299,"name":"乐东","initial":"L","pin_code":"LD","longitude":"109.0626980127","latitude":"18.6586135607336"},{"id":300,"name":"陵水","initial":"L","pin_code":"LS","longitude":"109.948660710043","latitude":"18.575984851566"},{"id":301,"name":"保亭","initial":"B","pin_code":"BT","longitude":"109.656113379686","latitude":"18.5975923462668"},{"id":302,"name":"琼中","initial":"Q","pin_code":"QZ","longitude":"109.861848570774","latitude":"19.0397710669684"}]},{"id":17,"name":"河南","initial":"H","pin_code":"HN","longitude":"101.556307295327","latitude":"34.5113897378692","Citys":[{"id":303,"name":"郑州","initial":"Z","pin_code":"ZZ","longitude":"113.649643849864","latitude":"34.7566100641403"},{"id":304,"name":"开封","initial":"K","pin_code":"KF","longitude":"114.351642117764","latitude":"34.8018541758367"},{"id":305,"name":"洛阳","initial":"L","pin_code":"LY","longitude":"112.447524768951","latitude":"34.6573678176511"},{"id":306,"name":"平顶山","initial":"P","pin_code":"PDS","longitude":"113.300848977975","latitude":"33.7453014565244"},{"id":307,"name":"安阳","initial":"A","pin_code":"AY","longitude":"114.351806507672","latitude":"36.1102667221811"},{"id":308,"name":"鹤壁","initial":"H","pin_code":"HB","longitude":"114.297769838025","latitude":"35.755425874224"},{"id":309,"name":"新乡","initial":"X","pin_code":"XX","longitude":"113.912690160824","latitude":"35.3072575576613"},{"id":311,"name":"濮阳","initial":"P","pin_code":"PY","longitude":"115.026627440672","latitude":"35.7532978882076"},{"id":312,"name":"许昌","initial":"X","pin_code":"XC","longitude":"113.835312459789","latitude":"34.0267395886552"},{"id":313,"name":"漯河","initial":"L","pin_code":"LH","longitude":"114.046061400229","latitude":"33.5762786884832"},{"id":314,"name":"三门峡","initial":"S","pin_code":"SMX","longitude":"111.181262093267","latitude":"34.7833199410497"},{"id":315,"name":"南阳","initial":"N","pin_code":"NY","longitude":"112.542841900512","latitude":"33.0114195691165"},{"id":316,"name":"商丘","initial":"S","pin_code":"SQ","longitude":"115.64188568785","latitude":"34.4385886402464"},{"id":317,"name":"信阳","initial":"X","pin_code":"XY","longitude":"114.08549099347","latitude":"32.1285823075117"},{"id":318,"name":"周口","initial":"Z","pin_code":"ZK","longitude":"114.654101942295","latitude":"33.6237408181408"},{"id":319,"name":"驻马店","initial":"Z","pin_code":"ZMD","longitude":"114.049153547456","latitude":"32.9831581540935"}]},{"id":18,"name":"安徽","initial":"A","pin_code":"AH","longitude":"117.21600520757","latitude":"31.8592524170792","Citys":[{"id":321,"name":"合肥","initial":"H","pin_code":"HF","longitude":"117.282699091683","latitude":"31.8669422606869"},{"id":322,"name":"芜湖","initial":"W","pin_code":"WH","longitude":"118.384108423228","latitude":"31.366019787543"},{"id":323,"name":"蚌埠","initial":"B","pin_code":"BB","longitude":"117.357079865876","latitude":"32.929498906698"},{"id":324,"name":"淮南","initial":"H","pin_code":"HN","longitude":"117.018638863295","latitude":"32.6428118237479"},{"id":325,"name":"马鞍山","initial":"M","pin_code":"MAS","longitude":"118.515881846623","latitude":"31.68852815888"},{"id":326,"name":"淮北","initial":"H","pin_code":"HB","longitude":"116.79144742863","latitude":"33.9600233053641"},{"id":327,"name":"铜陵","initial":"T","pin_code":"TL","longitude":"117.819428728806","latitude":"30.9409296946657"},{"id":328,"name":"安庆","initial":"A","pin_code":"AQ","longitude":"117.058738772107","latitude":"30.5378978173811"},{"id":329,"name":"黄山","initial":"H","pin_code":"HS","longitude":"118.077546127263","latitude":"30.2777458951202"},{"id":330,"name":"滁州","initial":"C","pin_code":"CZ","longitude":"118.324570350977","latitude":"32.3173505953838"},{"id":331,"name":"阜阳","initial":"F","pin_code":"FY","longitude":"115.820932259046","latitude":"32.9012113305696"},{"id":332,"name":"宿州","initial":"S","pin_code":"SZ","longitude":"116.988692411831","latitude":"33.6367723857808"},{"id":333,"name":"六安","initial":"L","pin_code":"LA","longitude":"116.505252682984","latitude":"31.7555583551984"},{"id":334,"name":"亳州","initial":"B","pin_code":"BZ","longitude":"115.787928245118","latitude":"33.8712105653019"},{"id":335,"name":"池州","initial":"C","pin_code":"CZ","longitude":"117.494476771594","latitude":"30.6600192481606"},{"id":336,"name":"宣城","initial":"X","pin_code":"XC","longitude":"118.752096310983","latitude":"30.9516423542958"}]},{"id":19,"name":"福建","initial":"F","pin_code":"FJ","longitude":"117.984943119907","latitude":"26.0501182956607","Citys":[{"id":337,"name":"福州","initial":"F","pin_code":"FZ","longitude":"119.330221107127","latitude":"26.0471254965729"},{"id":338,"name":"厦门","initial":"X","pin_code":"XM","longitude":"118.103886045664","latitude":"24.4892306124692"},{"id":339,"name":"莆田","initial":"P","pin_code":"PT","longitude":"119.07773096396","latitude":"25.4484501367343"},{"id":340,"name":"三明","initial":"S","pin_code":"SM","longitude":"117.642193934044","latitude":"26.2708352793622"},{"id":341,"name":"泉州","initial":"Q","pin_code":"QZ","longitude":"118.600362343229","latitude":"24.9016523839911"},{"id":342,"name":"漳州","initial":"Z","pin_code":"ZZ","longitude":"117.676204678946","latitude":"24.5170647798085"},{"id":343,"name":"南平","initial":"N","pin_code":"NP","longitude":"118.181882948661","latitude":"26.6436264741978"},{"id":344,"name":"龙岩","initial":"L","pin_code":"LY","longitude":"117.017996738773","latitude":"25.0786854335152"},{"id":345,"name":"宁德","initial":"N","pin_code":"ND","longitude":"119.542082149719","latitude":"26.6565274191589"}]},{"id":20,"name":"甘肃","initial":"G","pin_code":"GS","longitude":"102.45762459934","latitude":"38.1032673437523","Citys":[{"id":346,"name":"兰州","initial":"L","pin_code":"LZ","longitude":"103.823305440729","latitude":"36.0642255250426"},{"id":347,"name":"嘉峪关","initial":"J","pin_code":"JYG","longitude":"98.281634585257","latitude":"39.8023973267335"},{"id":348,"name":"金昌","initial":"J","pin_code":"JC","longitude":"102.20812626259","latitude":"38.5160717995317"},{"id":349,"name":"白银","initial":"B","pin_code":"BY","longitude":"104.2056493285","latitude":"36.5018218287101"},{"id":350,"name":"天水","initial":"T","pin_code":"TS","longitude":"105.736931622856","latitude":"34.5843194188687"},{"id":351,"name":"武威","initial":"W","pin_code":"WW","longitude":"102.640147343368","latitude":"37.9331721429056"},{"id":352,"name":"酒泉","initial":"J","pin_code":"JQ","longitude":"98.5084145061674","latitude":"39.741473768159"},{"id":353,"name":"张掖","initial":"Z","pin_code":"ZY","longitude":"100.459891868924","latitude":"38.9393202969821"},{"id":354,"name":"庆阳","initial":"Q","pin_code":"QY","longitude":"107.644227086733","latitude":"35.72680075453"},{"id":355,"name":"平凉","initial":"P","pin_code":"PL","longitude":"106.688911156547","latitude":"35.5501101900166"},{"id":356,"name":"定西","initial":"D","pin_code":"DX","longitude":"104.626637600665","latitude":"35.5860562418284"},{"id":357,"name":"陇南","initial":"L","pin_code":"LN","longitude":"104.934573405755","latitude":"33.394479972938"},{"id":358,"name":"临夏","initial":"L","pin_code":"LX","longitude":"103.200575761095","latitude":"35.5858348145643"},{"id":359,"name":"甘南","initial":"G","pin_code":"GN","longitude":"102.917442486496","latitude":"34.9922111783786"}]},{"id":21,"name":"山西","initial":"S","pin_code":"SX","longitude":"112.515495863839","latitude":"37.8665659905093","Citys":[{"id":360,"name":"太原","initial":"T","pin_code":"TY","longitude":"112.550863589055","latitude":"37.8902770539675"},{"id":361,"name":"大同","initial":"D","pin_code":"DT","longitude":"124.699077392677","latitude":"46.0700510016629"},{"id":362,"name":"阳泉","initial":"Y","pin_code":"YQ","longitude":"113.569237601633","latitude":"37.8695294932226"},{"id":363,"name":"长治","initial":"C","pin_code":"CZ","longitude":"113.120292085725","latitude":"36.2016643857434"},{"id":364,"name":"晋城","initial":"J","pin_code":"JC","longitude":"112.867332757507","latitude":"35.4998344672256"},{"id":365,"name":"朔州","initial":"S","pin_code":"SZ","longitude":"112.479927726663","latitude":"39.3376719662206"},{"id":366,"name":"忻州","initial":"X","pin_code":"XZ","longitude":"112.72793882881","latitude":"38.4610305729589"},{"id":367,"name":"吕梁","initial":"L","pin_code":"LL","longitude":"111.143156602348","latitude":"37.5273160969626"},{"id":368,"name":"晋中","initial":"J","pin_code":"JZ","longitude":"112.738514399918","latitude":"37.6933615267976"},{"id":369,"name":"临汾","initial":"L","pin_code":"LF","longitude":"111.538787596408","latitude":"36.0997454435854"},{"id":370,"name":"运城","initial":"Y","pin_code":"YC","longitude":"111.00685365308","latitude":"35.0388594798119"}]},{"id":22,"name":"云南","initial":"Y","pin_code":"YN","longitude":"101.592951637008","latitude":"24.8642127954833","Citys":[{"id":371,"name":"昆明","initial":"K","pin_code":"KM","longitude":"102.71460113878","latitude":"25.0491531004532"},{"id":372,"name":"曲靖","initial":"Q","pin_code":"QJ","longitude":"103.782538888027","latitude":"25.5207581428705"},{"id":373,"name":"玉溪","initial":"Y","pin_code":"YX","longitude":"102.545067892483","latitude":"24.3704471344384"},{"id":374,"name":"保山","initial":"B","pin_code":"BS","longitude":"99.1779956132782","latitude":"25.1204891961904"},{"id":375,"name":"昭通","initial":"Z","pin_code":"ZT","longitude":"103.725020655733","latitude":"27.3406329636355"},{"id":376,"name":"丽江","initial":"L","pin_code":"LJ","longitude":"100.229628398879","latitude":"26.8753510894814"},{"id":377,"name":"普洱","initial":"P","pin_code":"PE","longitude":"100.980057730134","latitude":"22.7887777801494"},{"id":378,"name":"临沧","initial":"L","pin_code":"LC","longitude":"100.092612913726","latitude":"23.887806103773"},{"id":379,"name":"德宏","initial":"D","pin_code":"DH","longitude":"98.5894342874069","latitude":"24.441239663008"},{"id":380,"name":"怒江","initial":"N","pin_code":"NJ","longitude":"98.8599320424821","latitude":"25.8606769781654"},{"id":381,"name":"迪庆","initial":"D","pin_code":"DQ","longitude":"99.7136815988831","latitude":"27.8310294611673"},{"id":382,"name":"大理","initial":"D","pin_code":"DL","longitude":"100.219208954218","latitude":"25.693966622473"},{"id":383,"name":"楚雄","initial":"C","pin_code":"CX","longitude":"101.328637999176","latitude":"24.8802524726508"},{"id":384,"name":"红河","initial":"H","pin_code":"HH","longitude":"103.384064757159","latitude":"23.367717516499"},{"id":385,"name":"文山","initial":"W","pin_code":"WS","longitude":"104.030939812463","latitude":"23.4160095350723"},{"id":386,"name":"西双版纳","initial":"X","pin_code":"XSBN","longitude":"100.803038275211","latitude":"22.0094330022362"}]},{"id":23,"name":"青海","initial":"Q","pin_code":"QH","longitude":"96.2025436722611","latitude":"35.4997610042747","Citys":[{"id":387,"name":"西宁","initial":"X","pin_code":"XN","longitude":"101.767920989803","latitude":"36.640738611958"},{"id":388,"name":"海东","initial":"H","pin_code":"HD","longitude":"102.085206987455","latitude":"36.5176101676861"},{"id":389,"name":"海北","initial":"H","pin_code":"HB","longitude":"100.879802174477","latitude":"36.9606541010838"},{"id":390,"name":"海南","initial":"H","pin_code":"HN","longitude":"106.925397178662","latitude":"39.2962094793918"},{"id":391,"name":"黄南","initial":"H","pin_code":"HN","longitude":"102.007600308345","latitude":"35.5228515517283"},{"id":392,"name":"果洛","initial":"G","pin_code":"GL","longitude":"100.223722768993","latitude":"34.4804845846096"},{"id":393,"name":"玉树","initial":"Y","pin_code":"YS","longitude":"97.0133161374136","latitude":"33.0062399097223"},{"id":394,"name":"海西","initial":"H","pin_code":"HX","longitude":"97.3426254153331","latitude":"37.3737990705899"}]},{"id":24,"name":"宁夏","initial":"N","pin_code":"NX","longitude":"106.155481265054","latitude":"37.3213231122954","Citys":[{"id":395,"name":"银川","initial":"Y","pin_code":"YC","longitude":"106.206478607838","latitude":"38.502621011876"},{"id":396,"name":"石嘴山","initial":"S","pin_code":"SZS","longitude":"106.379337201529","latitude":"39.020223283603"},{"id":397,"name":"吴忠","initial":"W","pin_code":"WZ","longitude":"106.208254198509","latitude":"37.9935610029357"},{"id":398,"name":"固原","initial":"G","pin_code":"GY","longitude":"106.285267995983","latitude":"36.0215234807093"},{"id":399,"name":"中卫","initial":"Z","pin_code":"ZW","longitude":"105.196754199355","latitude":"37.5211241915946"}]},{"id":25,"name":"江西","initial":"J","pin_code":"JX","longitude":"115.676082366704","latitude":"27.7572584434408","Citys":[{"id":400,"name":"南昌","initial":"N","pin_code":"NC","longitude":"115.893527545836","latitude":"28.6895780001411"},{"id":401,"name":"景德镇","initial":"J","pin_code":"JDZ","longitude":"117.186522625273","latitude":"29.3035627684483"},{"id":402,"name":"萍乡","initial":"P","pin_code":"PX","longitude":"113.859917033007","latitude":"27.6395442229523"},{"id":403,"name":"九江","initial":"J","pin_code":"JJ","longitude":"115.999848021554","latitude":"29.7196395261224"},{"id":404,"name":"新余","initial":"X","pin_code":"XY","longitude":"114.947117416789","latitude":"27.822321558629"},{"id":405,"name":"鹰潭","initial":"Y","pin_code":"YT","longitude":"117.035450186012","latitude":"28.241309597182"},{"id":406,"name":"赣州","initial":"G","pin_code":"GZ","longitude":"114.935909079284","latitude":"25.8452955363468"},{"id":407,"name":"吉安","initial":"J","pin_code":"JA","longitude":"114.99203871092","latitude":"27.1138476501571"},{"id":408,"name":"宜春","initial":"Y","pin_code":"YC","longitude":"114.400038671558","latitude":"27.8111298958429"},{"id":409,"name":"抚州","initial":"F","pin_code":"FZ","longitude":"116.360918866931","latitude":"27.9545451702699"},{"id":410,"name":"上饶","initial":"S","pin_code":"SR","longitude":"117.955463877149","latitude":"28.4576225539373"}]},{"id":26,"name":"辽宁","initial":"L","pin_code":"LN","longitude":"122.753591557719","latitude":"41.6216001059576","Citys":[{"id":411,"name":"沈阳","initial":"S","pin_code":"SY","longitude":"123.432790921605","latitude":"41.8086447835157"},{"id":412,"name":"大连","initial":"D","pin_code":"DL","longitude":"121.593477781435","latitude":"38.9487099383043"},{"id":413,"name":"鞍山","initial":"A","pin_code":"AS","longitude":"123.007763328884","latitude":"41.1187436821535"},{"id":414,"name":"抚顺","initial":"F","pin_code":"FS","longitude":"123.929819767054","latitude":"41.8773038295909"},{"id":415,"name":"本溪","initial":"B","pin_code":"BX","longitude":"123.778062369792","latitude":"41.3258376266488"},{"id":416,"name":"丹东","initial":"D","pin_code":"DD","longitude":"124.338543114769","latitude":"40.1290228266375"},{"id":417,"name":"锦州","initial":"J","pin_code":"JZ","longitude":"121.147748738236","latitude":"41.1308788759173"},{"id":418,"name":"营口","initial":"Y","pin_code":"YK","longitude":"122.233391370793","latitude":"40.6686510664735"},{"id":419,"name":"阜新","initial":"F","pin_code":"FX","longitude":"121.660822128568","latitude":"42.0192501070602"},{"id":420,"name":"辽阳","initial":"L","pin_code":"LY","longitude":"123.172451205147","latitude":"41.2733392655694"},{"id":421,"name":"盘锦","initial":"P","pin_code":"PJ","longitude":"122.07322781023","latitude":"41.1412480229562"},{"id":422,"name":"铁岭","initial":"T","pin_code":"TL","longitude":"123.854849614616","latitude":"42.2997570121254"},{"id":424,"name":"葫芦岛","initial":"H","pin_code":"HLD","longitude":"120.860757644756","latitude":"40.7430298813175"}]},{"id":27,"name":"黑龙江","initial":"H","pin_code":"HLJ","longitude":"128.047413714993","latitude":"47.3565916431114","Citys":[{"id":425,"name":"哈尔滨","initial":"H","pin_code":"HEB","longitude":"126.657716855446","latitude":"45.7732246332393"},{"id":426,"name":"齐齐哈尔","initial":"Q","pin_code":"QQHE","longitude":"123.987288942173","latitude":"47.3476998133664"},{"id":427,"name":"鹤岗","initial":"H","pin_code":"HG","longitude":"130.292472050635","latitude":"47.3386659037268"},{"id":428,"name":"双鸭山","initial":"S","pin_code":"SYS","longitude":"131.171401739582","latitude":"46.6551020624825"},{"id":429,"name":"鸡西","initial":"J","pin_code":"JX","longitude":"130.941767273251","latitude":"45.3215398865511"},{"id":430,"name":"大庆","initial":"D","pin_code":"DQ","longitude":"125.021839730211","latitude":"46.5967090200076"},{"id":431,"name":"伊春","initial":"Y","pin_code":"YC","longitude":"128.900579642591","latitude":"47.7419592381891"},{"id":432,"name":"牡丹江","initial":"M","pin_code":"MDJ","longitude":"129.608035395637","latitude":"44.5885211527825"},{"id":433,"name":"佳木斯","initial":"J","pin_code":"JMS","longitude":"130.284734585955","latitude":"46.8137796047404"},{"id":434,"name":"七台河","initial":"Q","pin_code":"QTH","longitude":"131.019048047122","latitude":"45.7750053686404"},{"id":435,"name":"黑河","initial":"H","pin_code":"HH","longitude":"127.500830295235","latitude":"50.2506900907383"},{"id":436,"name":"绥化","initial":"S","pin_code":"SH","longitude":"126.989094571635","latitude":"46.6460639269969"},{"id":437,"name":"大兴安岭","initial":"D","pin_code":"DXAL","longitude":"124.196104190174","latitude":"51.9917889680144"}]},{"id":28,"name":"吉林","initial":"J","pin_code":"JL","longitude":"126.564543988833","latitude":"43.8719883343593","Citys":[{"id":438,"name":"长春","initial":"C","pin_code":"CC","longitude":"125.313642427201","latitude":"43.8983376070978"},{"id":439,"name":"吉林","initial":"J","pin_code":"JL","longitude":"126.564543988833","latitude":"43.8719883343593"},{"id":440,"name":"四平","initial":"S","pin_code":"SP","longitude":"124.39138207368","latitude":"43.1755247011256"},{"id":441,"name":"辽源","initial":"L","pin_code":"LY","longitude":"125.133686052184","latitude":"42.9233026190537"},{"id":442,"name":"通化","initial":"T","pin_code":"TH","longitude":"125.942650138514","latitude":"41.7363971298676"},{"id":443,"name":"白山","initial":"B","pin_code":"BS","longitude":"126.435797675346","latitude":"41.9458593970179"},{"id":444,"name":"松原","initial":"S","pin_code":"SY","longitude":"124.832994532341","latitude":"45.136048970084"},{"id":445,"name":"白城","initial":"B","pin_code":"BC","longitude":"122.8407766791","latitude":"45.6210862752189"},{"id":446,"name":"延边","initial":"Y","pin_code":"YB","longitude":"129.485901958161","latitude":"42.8964136037441"}]},{"id":29,"name":"内蒙古","initial":"N","pin_code":"NMG","longitude":"114.415867548166","latitude":"43.468238221949","Citys":[{"id":447,"name":"呼和浩特","initial":"H","pin_code":"HHHT","longitude":"111.660350520054","latitude":"40.8283188730816"},{"id":448,"name":"包头","initial":"B","pin_code":"BT","longitude":"109.846238532492","latitude":"40.6471194257086"},{"id":449,"name":"乌海","initial":"W","pin_code":"WH","longitude":"106.831999097162","latitude":"39.6831770067852"},{"id":450,"name":"赤峰","initial":"C","pin_code":"CF","longitude":"118.930761192168","latitude":"42.2971123203173"},{"id":451,"name":"呼伦贝尔","initial":"H","pin_code":"HLBE","longitude":"119.760821793999","latitude":"49.2016360546043"},{"id":452,"name":"兴安","initial":"X","pin_code":"XA","longitude":"130.244375336341","latitude":"47.2337100657203"},{"id":453,"name":"通辽","initial":"T","pin_code":"TL","longitude":"122.260363263221","latitude":"43.633756072996"},{"id":454,"name":"锡林郭勒","initial":"X","pin_code":"XLGL","longitude":"116.118500555856","latitude":"44.4897605051504"},{"id":455,"name":"乌兰察布","initial":"W","pin_code":"WLCB","longitude":"113.112846390675","latitude":"41.0223629467512"},{"id":456,"name":"伊克昭","initial":"Y","pin_code":"YKZ","longitude":"97.3095357704321","latitude":"35.4871389343167"},{"id":528,"name":"鄂尔多斯","initial":"E","pin_code":"EEDS","longitude":"109.8","latitude":"39.62"},{"id":457,"name":"巴彦淖尔","initial":"B","pin_code":"BYNE","longitude":"107.42380671968","latitude":"40.7691799024291"},{"id":458,"name":"阿拉善","initial":"A","pin_code":"ALS","longitude":"113.647512527517","latitude":"41.2070660419037"}]},{"id":30,"name":"西藏","initial":"X","pin_code":"XC","longitude":"89.1379816840313","latitude":"31.3673154027147","Citys":[{"id":459,"name":"拉萨","initial":"L","pin_code":"LS","longitude":"91.111890895984","latitude":"29.6625570620565"},{"id":460,"name":"那曲","initial":"N","pin_code":"NQ","longitude":"92.0670183688588","latitude":"31.4806798301196"},{"id":461,"name":"昌都","initial":"C","pin_code":"CD","longitude":"97.1855815799761","latitude":"31.1405756318821"},{"id":462,"name":"林芝","initial":"L","pin_code":"LZ","longitude":"94.3499854582444","latitude":"29.6669406258132"},{"id":463,"name":"山南","initial":"S","pin_code":"SN","longitude":"91.7506438744116","latitude":"29.229026931718"},{"id":464,"name":"日喀则","initial":"R","pin_code":"RKZ","longitude":"88.9560627735182","latitude":"29.2681600326548"},{"id":465,"name":"阿里","initial":"A","pin_code":"AL","longitude":"81.10766868949","latitude":"30.4045565883254"}]},{"id":31,"name":"新疆","initial":"X","pin_code":"XJ","longitude":"103.849930865706","latitude":"36.0645697330627","Citys":[{"id":466,"name":"乌鲁木齐","initial":"W","pin_code":"WLMQ","longitude":"87.5649877411158","latitude":"43.8403803472177"},{"id":467,"name":"克拉玛依","initial":"K","pin_code":"KLMY","longitude":"84.9269896349479","latitude":"45.2039192460389"},{"id":468,"name":"吐鲁番","initial":"T","pin_code":"TLF","longitude":"89.2660254886424","latitude":"42.6789248207937"},{"id":469,"name":"哈密","initial":"H","pin_code":"HM","longitude":"93.5293730123888","latitude":"42.3444671045524"},{"id":470,"name":"昌吉","initial":"C","pin_code":"CJ","longitude":"87.073618053225","latitude":"44.1750834478909"},{"id":471,"name":"博尔塔拉","initial":"B","pin_code":"BETL","longitude":"82.0681394560138","latitude":"44.901267989182"},{"id":472,"name":"巴音郭楞","initial":"B","pin_code":"BYGL","longitude":"83.6542622237882","latitude":"42.608612242352"},{"id":473,"name":"阿克苏","initial":"A","pin_code":"AKS","longitude":"81.1560131478074","latitude":"40.3494443011125"},{"id":474,"name":"克孜勒苏柯尔克孜","initial":"K","pin_code":"KZLSKEKZ","longitude":"76.1375644774625","latitude":"39.7503455778451"},{"id":475,"name":"喀什","initial":"K","pin_code":"KS","longitude":"76.0143427989434","latitude":"39.513110585312"},{"id":476,"name":"和田","initial":"H","pin_code":"HT","longitude":"79.9158137310386","latitude":"37.1533497396814"},{"id":477,"name":"伊犁","initial":"Y","pin_code":"YL","longitude":"","latitude":""},{"id":478,"name":"塔城","initial":"T","pin_code":"TC","longitude":"83.1901276630817","latitude":"46.8113671437186"},{"id":479,"name":"阿勒泰","initial":"A","pin_code":"ALT","longitude":"87.9262143601887","latitude":"47.8901357257489"},{"id":480,"name":"石河子","initial":"S","pin_code":"SHZ","longitude":"86.0418649221948","latitude":"44.3082589804305"},{"id":481,"name":"阿拉尔","initial":"A","pin_code":"ALE","longitude":"81.2917365501579","latitude":"40.6156800051849"},{"id":482,"name":"图木舒克","initial":"T","pin_code":"TMSK","longitude":"79.1981551079036","latitude":"39.8892228818043"},{"id":483,"name":"五家渠","initial":"W","pin_code":"WJQ","longitude":"87.5654489801809","latitude":"44.3688994790175"}]},{"id":533,"name":"香港","initial":"X","pin_code":"XG","longitude":"114.186124102571","latitude":"22.2935859932797","Citys":[{"id":32,"name":"香港","initial":"X","pin_code":"XG","longitude":"114.186124102571","latitude":"22.2935859932797"}]},{"id":534,"name":"澳门","initial":"A","pin_code":"AM","longitude":"113.557519101825","latitude":"22.2041179884433","Citys":[{"id":33,"name":"澳门","initial":"A","pin_code":"AM","longitude":"113.557519101825","latitude":"22.2041179884433"}]},{"id":535,"name":"台湾","initial":"T","pin_code":"TW","longitude":"121.973870978716","latitude":"24.0869567188049","Citys":[{"id":34,"name":"台湾","initial":"T","pin_code":"TW","longitude":"121.973870978716","latitude":"24.0869567188049"}]}]
